{"type": "FeatureCollection", "features": [ {"type": "Feature", "properties": {"norad_id": 58655, "name": "BEIDOU-3 M26 (C48)", "group": "beidou", "lat": -1.535488279206587, "lon": -110.07686673602807, "alt_km": 21525.014741625815, "timestamp": "2025-12-04T10:51:50.371108+00:00", "meta": {"OBJECT_NAME": "BEIDOU-3 M26 (C48)", "OBJECT_ID": "2023-207B", "EPOCH": "2025-12-03T02:34:45.227424", "MEAN_MOTION": 1.86231091, "ECCENTRICITY": 0.00034591, "INCLINATION": 55.5782, "RA_OF_ASC_NODE": 68.9139, "ARG_OF_PERICENTER": 250.5367, "MEAN_ANOMALY": 109.429, "EPHEMERIS_TYPE": 0, "CLASSIFICATION_TYPE": "U", "NORAD_CAT_ID": 58655, "ELEMENT_SET_NO": 999, "REV_AT_EPOCH": 1317, "BSTAR": 0, "MEAN_MOTION_DOT": -5e-07, "MEAN_MOTION_DDOT": 0}, "tle": {"line1": "1 58655U 23207B   25337.10746791 -.00000050  00000+0  00000+0 0  9992", "line2": "2 58655  55.5782  68.9139 0003459 250.5367 109.4290  1.86231091 13176"}}, "geometry": {"type": "Point", "coordinates": [-110.07686673602807, -1.535488279206587]}}, {"type": "Feature", "properties": {"norad_id": 61186, "name": "BEIDOU-3 M25 (C47)", "group": "beidou", "lat": -45.6062307875682, "lon": -97.45678223124543, "alt_km": 21517.897941614945, "timestamp": "2025-12-04T10:51:50.371119+00:00", "meta": {"OBJECT_NAME": "BEIDOU-3 M25 (C47)", "OBJECT_ID": "2024-168B", "EPOCH": "2025-12-01T06:18:53.159328", "MEAN_MOTION": 1.86229803, "ECCENTRICITY": 0.000556, "INCLINATION": 54.6528, "RA_OF_ASC_NODE": 309.1184, "ARG_OF_PERICENTER": 293.396, "MEAN_ANOMALY": 26.9682, "EPHEMERIS_TYPE": 0, "CLASSIFICATION_TYPE": "U", "NORAD_CAT_ID": 61186, "ELEMENT_SET_NO": 999, "REV_AT_EPOCH": 809, "BSTAR": 0, "MEAN_MOTION_DOT": -5.7e-07, "MEAN_MOTION_DDOT": 0}, "tle": {"line1": "1 61186U 24168B   25335.26311527 -.00000057  00000+0  00000+0 0  9999", "line2": "2 61186  54.6528 309.1184 0005560 293.3960  26.9682  1.86229803  8097"}}, "geometry": {"type": "Point", "coordinates": [-97.45678223124543, -45.6062307875682]}}, {"type": "Feature", "properties": {"norad_id": 61187, "name": "BEIDOU-3 M27 (C49)", "group": "beidou", "lat": 51.54299477984049, "lon": 12.287120645591967, "alt_km": 21523.905270590152, "timestamp": "2025-12-04T10:51:50.371131+00:00", "meta": {"OBJECT_NAME": "BEIDOU-3 M27 (C49)", "OBJECT_ID": "2024-168C", "EPOCH": "2025-12-01T06:11:08.494080", "MEAN_MOTION": 1.86229947, "ECCENTRICITY": 0.0002285, "INCLINATION": 54.6482, "RA_OF_ASC_NODE": 309.1022, "ARG_OF_PERICENTER": 327.2674, "MEAN_ANOMALY": 124.4273, "EPHEMERIS_TYPE": 0, "CLASSIFICATION_TYPE": "U", "NORAD_CAT_ID": 61187, "ELEMENT_SET_NO": 999, "REV_AT_EPOCH": 557, "BSTAR": 0, "MEAN_MOTION_DOT": -5.7e-07, "MEAN_MOTION_DDOT": 0}, "tle": {"line1": "1 61187U 24168C   25335.25773720 -.00000057  00000+0  00000+0 0  9996", "line2": "2 61187  54.6482 309.1022 0002285 327.2674 124.4273  1.86229947  5577"}}, "geometry": {"type": "Point", "coordinates": [12.287120645591967, 51.54299477984049]}}]}